{
  "links" : {
    "next" : "https://api.nasa.gov/neo/rest/v1/feed?start_date=2012-02-09&end_date=2012-02-09&detailed=true&api_key=t0TVs3DtDT2H8Oy2Zy8m2eVrNsAVKAexjcZXUckd",
    "prev" : "https://api.nasa.gov/neo/rest/v1/feed?start_date=2012-02-07&end_date=2012-02-07&detailed=true&api_key=t0TVs3DtDT2H8Oy2Zy8m2eVrNsAVKAexjcZXUckd",
    "self" : "https://api.nasa.gov/neo/rest/v1/feed?start_date=2012-02-08&end_date=2012-02-08&detailed=true&api_key=t0TVs3DtDT2H8Oy2Zy8m2eVrNsAVKAexjcZXUckd"
  },
  "element_count" : 9,
  "near_earth_objects" : {
    "2012-02-08" : [ {
      "links" : {
        "self" : "https://api.nasa.gov/neo/rest/v1/neo/3596677?api_key=t0TVs3DtDT2H8Oy2Zy8m2eVrNsAVKAexjcZXUckd"
      },
      "neo_reference_id" : "3596677",
      "name" : "(2012 BC77)",
      "nasa_jpl_url" : "http://ssd.jpl.nasa.gov/sbdb.cgi?sstr=3596677",
      "absolute_magnitude_h" : 25.1,
      "estimated_diameter" : {
        "kilometers" : {
          "estimated_diameter_min" : 0.0253837029,
          "estimated_diameter_max" : 0.0567596853
        },
        "meters" : {
          "estimated_diameter_min" : 25.3837029364,
          "estimated_diameter_max" : 56.7596852866
        },
        "miles" : {
          "estimated_diameter_min" : 0.0157726969,
          "estimated_diameter_max" : 0.0352688224
        },
        "feet" : {
          "estimated_diameter_min" : 83.279867942,
          "estimated_diameter_max" : 186.2194458756
        }
      },
      "is_potentially_hazardous_asteroid" : false,
      "close_approach_data" : [ {
        "close_approach_date" : "2012-02-08",
        "epoch_date_close_approach" : 1328688000000,
        "relative_velocity" : {
          "kilometers_per_second" : "16.4607193526",
          "kilometers_per_hour" : "59258.5896692855",
          "miles_per_hour" : "36820.9831197846"
        },
        "miss_distance" : {
          "astronomical" : "0.0329734697",
          "lunar" : "12.8266792297",
          "kilometers" : "4932760.5",
          "miles" : "3065075.5"
        },
        "orbiting_body" : "Earth"
      } ],
      "orbital_data" : {
        "orbit_id" : "9",
        "orbit_determination_date" : "2017-04-06 08:51:11",
        "orbit_uncertainty" : "8",
        "minimum_orbit_intersection" : ".0113909",
        "jupiter_tisserand_invariant" : "3.718",
        "epoch_osculation" : "2455954.5",
        "eccentricity" : ".5950453095922134",
        "semi_major_axis" : "1.890546564621434",
        "inclination" : "4.601808627242766",
        "ascending_node_longitude" : "149.1264888213019",
        "orbital_period" : "949.4661690927622",
        "perihelion_distance" : ".7655856987777773",
        "perihelion_argument" : "58.03742024841907",
        "aphelion_distance" : "3.01550743046509",
        "perihelion_time" : "2456008.804733014290",
        "mean_anomaly" : "339.4097941332395",
        "mean_motion" : ".3791604290061105",
        "equinox" : "J2000"
      }
    }, {
      "links" : {
        "self" : "https://api.nasa.gov/neo/rest/v1/neo/3599685?api_key=t0TVs3DtDT2H8Oy2Zy8m2eVrNsAVKAexjcZXUckd"
      },
      "neo_reference_id" : "3599685",
      "name" : "(2012 DM14)",
      "nasa_jpl_url" : "http://ssd.jpl.nasa.gov/sbdb.cgi?sstr=3599685",
      "absolute_magnitude_h" : 24.4,
      "estimated_diameter" : {
        "kilometers" : {
          "estimated_diameter_min" : 0.0350392641,
          "estimated_diameter_max" : 0.0783501764
        },
        "meters" : {
          "estimated_diameter_min" : 35.0392641108,
          "estimated_diameter_max" : 78.3501764334
        },
        "miles" : {
          "estimated_diameter_min" : 0.0217723826,
          "estimated_diameter_max" : 0.0486845275
        },
        "feet" : {
          "estimated_diameter_min" : 114.9582192654,
          "estimated_diameter_max" : 257.0543928497
        }
      },
      "is_potentially_hazardous_asteroid" : false,
      "close_approach_data" : [ {
        "close_approach_date" : "2012-02-08",
        "epoch_date_close_approach" : 1328688000000,
        "relative_velocity" : {
          "kilometers_per_second" : "8.9727242089",
          "kilometers_per_hour" : "32301.8071520588",
          "miles_per_hour" : "20071.0867829001"
        },
        "miss_distance" : {
          "astronomical" : "0.149357886",
          "lunar" : "58.1002159119",
          "kilometers" : "22343622",
          "miles" : "13883683"
        },
        "orbiting_body" : "Earth"
      } ],
      "orbital_data" : {
        "orbit_id" : "4",
        "orbit_determination_date" : "2017-04-06 08:50:50",
        "orbit_uncertainty" : "9",
        "minimum_orbit_intersection" : ".142656",
        "jupiter_tisserand_invariant" : "4.570",
        "epoch_osculation" : "2455981.5",
        "eccentricity" : ".2771348172193036",
        "semi_major_axis" : "1.447391176719582",
        "inclination" : "15.91669559428983",
        "ascending_node_longitude" : "332.2622890011958",
        "orbital_period" : "636.0295714565725",
        "perihelion_distance" : "1.046268687514568",
        "perihelion_argument" : "122.9713771528031",
        "aphelion_distance" : "1.848513665924596",
        "perihelion_time" : "2455920.363567020386",
        "mean_anomaly" : "34.60391915781199",
        "mean_motion" : ".5660114185816287",
        "equinox" : "J2000"
      }
    }, {
      "links" : {
        "self" : "https://api.nasa.gov/neo/rest/v1/neo/2333707?api_key=t0TVs3DtDT2H8Oy2Zy8m2eVrNsAVKAexjcZXUckd"
      },
      "neo_reference_id" : "2333707",
      "name" : "333707 (2008 YT30)",
      "nasa_jpl_url" : "http://ssd.jpl.nasa.gov/sbdb.cgi?sstr=2333707",
      "absolute_magnitude_h" : 19.4,
      "estimated_diameter" : {
        "kilometers" : {
          "estimated_diameter_min" : 0.3503926411,
          "estimated_diameter_max" : 0.7835017643
        },
        "meters" : {
          "estimated_diameter_min" : 350.3926411083,
          "estimated_diameter_max" : 783.5017643338
        },
        "miles" : {
          "estimated_diameter_min" : 0.2177238258,
          "estimated_diameter_max" : 0.4868452748
        },
        "feet" : {
          "estimated_diameter_min" : 1149.5821926537,
          "estimated_diameter_max" : 2570.543928497
        }
      },
      "is_potentially_hazardous_asteroid" : false,
      "close_approach_data" : [ {
        "close_approach_date" : "2012-02-08",
        "epoch_date_close_approach" : 1328688000000,
        "relative_velocity" : {
          "kilometers_per_second" : "8.3989666015",
          "kilometers_per_hour" : "30236.2797652319",
          "miles_per_hour" : "18787.6483907909"
        },
        "miss_distance" : {
          "astronomical" : "0.3954480075",
          "lunar" : "153.8292694092",
          "kilometers" : "59158180",
          "miles" : "36759188"
        },
        "orbiting_body" : "Earth"
      } ],
      "orbital_data" : {
        "orbit_id" : "48",
        "orbit_determination_date" : "2017-04-06 09:23:27",
        "orbit_uncertainty" : "0",
        "minimum_orbit_intersection" : ".0711307",
        "jupiter_tisserand_invariant" : "5.011",
        "epoch_osculation" : "2458000.5",
        "eccentricity" : ".2753375200449524",
        "semi_major_axis" : "1.269539933241126",
        "inclination" : "16.14162360574315",
        "ascending_node_longitude" : "269.5893127878703",
        "orbital_period" : "522.4779611667235",
        "perihelion_distance" : ".9199879564244799",
        "perihelion_argument" : "334.0949489079494",
        "aphelion_distance" : "1.619091910057772",
        "perihelion_time" : "2458169.372400893928",
        "mean_anomaly" : "243.6428158882391",
        "mean_motion" : ".689024278069259",
        "equinox" : "J2000"
      }
    } ]
  }
}